ORBCOMM FM33 [-]        
1 25983U 99065D   23332.57456176  .00002342  00000+0  82955-3 0  9992
2 25983  45.0264 166.0025 0008940  95.1772 294.1203 14.37026075254481
ORBCOMM FM36 [-]        
1 25984U 99065E   23333.13092039  .00002029  00000+0  75637-3 0  9991
2 25984  45.0396 246.0569 0004731 338.2139  21.8507 14.34901794253626
ORBCOMM FM35 [+]        
1 25985U 99065F   23333.13139009  .00001718  00000+0  65252-3 0  9997
2 25985  45.0397 248.2479 0002808  60.3960 299.7167 14.34575403253622
ORBCOMM FM34 [-]        
1 25986U 99065G   23332.88813288  .00002081  00000+0  78042-3 0  9992
2 25986  45.0391 249.8830 0004516  13.2228 346.8737 14.34527720253511
ORBCOMM FM38 [-]        
1 33060U 08031A   23332.64595245  .00003906  00000+0  58399-3 0  9991
2 33060  48.4393 124.3253 0005174 140.0288 220.1007 14.76481763830904
ORBCOMM FM41 [-]        
1 33061U 08031B   23332.68023609  .00003603  00000+0  54407-3 0  9996
2 33061  48.4423 130.4110 0004287 127.6176 325.8777 14.76237866830416
ORBCOMM FM29 [-]        
1 33062U 08031C   23332.59540597  .00003465  00000+0  52577-3 0  9999
2 33062  48.4371 138.8114 0006209 122.9242 353.9490 14.76120506830318
ORBCOMM FM39 [-]        
1 33063U 08031D   23332.50346808  .00002803  00000+0  43964-3 0  9995
2 33063  48.4385 158.6117 0006995  96.5738 263.5971 14.75251435830017
