<?xml version="1.0" encoding="UTF-8"?>
<ndm xmlns:xsi="http://www.w3.org/2001/XMLSchema-instance" xsi:noNamespaceSchemaLocation="https://sanaregistry.org/r/ndmxml_unqualified/ndmxml-2.0.0-master-2.0.xsd">
<omm id="CCSDS_OMM_VERS" version="2.0">
<header><CREATION_DATE/><ORIGINATOR/></header><body><segment><metadata><OBJECT_NAME>ORBCOMM FM33 [-]</OBJECT_NAME><OBJECT_ID>1999-065D</OBJECT_ID><CENTER_NAME>EARTH</CENTER_NAME><REF_FRAME>TEME</REF_FRAME><TIME_SYSTEM>UTC</TIME_SYSTEM><MEAN_ELEMENT_THEORY>SGP4</MEAN_ELEMENT_THEORY></metadata><data><meanElements><EPOCH>2023-11-28T13:47:22.136064</EPOCH><MEAN_MOTION>14.37026075</MEAN_MOTION><ECCENTRICITY>.000894</ECCENTRICITY><INCLINATION>45.0264</INCLINATION><RA_OF_ASC_NODE>166.0025</RA_OF_ASC_NODE><ARG_OF_PERICENTER>95.1772</ARG_OF_PERICENTER><MEAN_ANOMALY>294.1203</MEAN_ANOMALY></meanElements><tleParameters><EPHEMERIS_TYPE>0</EPHEMERIS_TYPE><CLASSIFICATION_TYPE>U</CLASSIFICATION_TYPE><NORAD_CAT_ID>25983</NORAD_CAT_ID><ELEMENT_SET_NO>999</ELEMENT_SET_NO><REV_AT_EPOCH>25448</REV_AT_EPOCH><BSTAR>.82955E-3</BSTAR><MEAN_MOTION_DOT>.2342E-4</MEAN_MOTION_DOT><MEAN_MOTION_DDOT>0</MEAN_MOTION_DDOT></tleParameters></data></segment></body></omm>
<omm id="CCSDS_OMM_VERS" version="2.0">
<header><CREATION_DATE/><ORIGINATOR/></header><body><segment><metadata><OBJECT_NAME>ORBCOMM FM36 [-]</OBJECT_NAME><OBJECT_ID>1999-065E</OBJECT_ID><CENTER_NAME>EARTH</CENTER_NAME><REF_FRAME>TEME</REF_FRAME><TIME_SYSTEM>UTC</TIME_SYSTEM><MEAN_ELEMENT_THEORY>SGP4</MEAN_ELEMENT_THEORY></metadata><data><meanElements><EPOCH>2023-11-29T03:08:31.521696</EPOCH><MEAN_MOTION>14.34901794</MEAN_MOTION><ECCENTRICITY>.0004731</ECCENTRICITY><INCLINATION>45.0396</INCLINATION><RA_OF_ASC_NODE>246.0569</RA_OF_ASC_NODE><ARG_OF_PERICENTER>338.2139</ARG_OF_PERICENTER><MEAN_ANOMALY>21.8507</MEAN_ANOMALY></meanElements><tleParameters><EPHEMERIS_TYPE>0</EPHEMERIS_TYPE><CLASSIFICATION_TYPE>U</CLASSIFICATION_TYPE><NORAD_CAT_ID>25984</NORAD_CAT_ID><ELEMENT_SET_NO>999</ELEMENT_SET_NO><REV_AT_EPOCH>25362</REV_AT_EPOCH><BSTAR>.75637E-3</BSTAR><MEAN_MOTION_DOT>.2029E-4</MEAN_MOTION_DOT><MEAN_MOTION_DDOT>0</MEAN_MOTION_DDOT></tleParameters></data></segment></body></omm>
<omm id="CCSDS_OMM_VERS" version="2.0">
<header><CREATION_DATE/><ORIGINATOR/></header><body><segment><metadata><OBJECT_NAME>ORBCOMM FM35 [+]</OBJECT_NAME><OBJECT_ID>1999-065F</OBJECT_ID><CENTER_NAME>EARTH</CENTER_NAME><REF_FRAME>TEME</REF_FRAME><TIME_SYSTEM>UTC</TIME_SYSTEM><MEAN_ELEMENT_THEORY>SGP4</MEAN_ELEMENT_THEORY></metadata><data><meanElements><EPOCH>2023-11-29T03:09:12.103776</EPOCH><MEAN_MOTION>14.34575403</MEAN_MOTION><ECCENTRICITY>.0002808</ECCENTRICITY><INCLINATION>45.0397</INCLINATION><RA_OF_ASC_NODE>248.2479</RA_OF_ASC_NODE><ARG_OF_PERICENTER>60.3960</ARG_OF_PERICENTER><MEAN_ANOMALY>299.7167</MEAN_ANOMALY></meanElements><tleParameters><EPHEMERIS_TYPE>0</EPHEMERIS_TYPE><CLASSIFICATION_TYPE>U</CLASSIFICATION_TYPE><NORAD_CAT_ID>25985</NORAD_CAT_ID><ELEMENT_SET_NO>999</ELEMENT_SET_NO><REV_AT_EPOCH>25362</REV_AT_EPOCH><BSTAR>.65252E-3</BSTAR><MEAN_MOTION_DOT>.1718E-4</MEAN_MOTION_DOT><MEAN_MOTION_DDOT>0</MEAN_MOTION_DDOT></tleParameters></data></segment></body></omm>
<omm id="CCSDS_OMM_VERS" version="2.0">
<header><CREATION_DATE/><ORIGINATOR/></header><body><segment><metadata><OBJECT_NAME>ORBCOMM FM34 [-]</OBJECT_NAME><OBJECT_ID>1999-065G</OBJECT_ID><CENTER_NAME>EARTH</CENTER_NAME><REF_FRAME>TEME</REF_FRAME><TIME_SYSTEM>UTC</TIME_SYSTEM><MEAN_ELEMENT_THEORY>SGP4</MEAN_ELEMENT_THEORY></metadata><data><meanElements><EPOCH>2023-11-28T21:18:54.680832</EPOCH><MEAN_MOTION>14.34527720</MEAN_MOTION><ECCENTRICITY>.0004516</ECCENTRICITY><INCLINATION>45.0391</INCLINATION><RA_OF_ASC_NODE>249.8830</RA_OF_ASC_NODE><ARG_OF_PERICENTER>13.2228</ARG_OF_PERICENTER><MEAN_ANOMALY>346.8737</MEAN_ANOMALY></meanElements><tleParameters><EPHEMERIS_TYPE>0</EPHEMERIS_TYPE><CLASSIFICATION_TYPE>U</CLASSIFICATION_TYPE><NORAD_CAT_ID>25986</NORAD_CAT_ID><ELEMENT_SET_NO>999</ELEMENT_SET_NO><REV_AT_EPOCH>25351</REV_AT_EPOCH><BSTAR>.78042E-3</BSTAR><MEAN_MOTION_DOT>.2081E-4</MEAN_MOTION_DOT><MEAN_MOTION_DDOT>0</MEAN_MOTION_DDOT></tleParameters></data></segment></body></omm>
<omm id="CCSDS_OMM_VERS" version="2.0">
<header><CREATION_DATE/><ORIGINATOR/></header><body><segment><metadata><OBJECT_NAME>ORBCOMM FM38 [-]</OBJECT_NAME><OBJECT_ID>2008-031A</OBJECT_ID><CENTER_NAME>EARTH</CENTER_NAME><REF_FRAME>TEME</REF_FRAME><TIME_SYSTEM>UTC</TIME_SYSTEM><MEAN_ELEMENT_THEORY>SGP4</MEAN_ELEMENT_THEORY></metadata><data><meanElements><EPOCH>2023-11-28T15:30:10.291680</EPOCH><MEAN_MOTION>14.76481763</MEAN_MOTION><ECCENTRICITY>.0005174</ECCENTRICITY><INCLINATION>48.4393</INCLINATION><RA_OF_ASC_NODE>124.3253</RA_OF_ASC_NODE><ARG_OF_PERICENTER>140.0288</ARG_OF_PERICENTER><MEAN_ANOMALY>220.1007</MEAN_ANOMALY></meanElements><tleParameters><EPHEMERIS_TYPE>0</EPHEMERIS_TYPE><CLASSIFICATION_TYPE>U</CLASSIFICATION_TYPE><NORAD_CAT_ID>33060</NORAD_CAT_ID><ELEMENT_SET_NO>999</ELEMENT_SET_NO><REV_AT_EPOCH>83090</REV_AT_EPOCH><BSTAR>.58399E-3</BSTAR><MEAN_MOTION_DOT>.3906E-4</MEAN_MOTION_DOT><MEAN_MOTION_DDOT>0</MEAN_MOTION_DDOT></tleParameters></data></segment></body></omm>
<omm id="CCSDS_OMM_VERS" version="2.0">
<header><CREATION_DATE/><ORIGINATOR/></header><body><segment><metadata><OBJECT_NAME>ORBCOMM FM41 [-]</OBJECT_NAME><OBJECT_ID>2008-031B</OBJECT_ID><CENTER_NAME>EARTH</CENTER_NAME><REF_FRAME>TEME</REF_FRAME><TIME_SYSTEM>UTC</TIME_SYSTEM><MEAN_ELEMENT_THEORY>SGP4</MEAN_ELEMENT_THEORY></metadata><data><meanElements><EPOCH>2023-11-28T16:19:32.398176</EPOCH><MEAN_MOTION>14.76237866</MEAN_MOTION><ECCENTRICITY>.0004287</ECCENTRICITY><INCLINATION>48.4423</INCLINATION><RA_OF_ASC_NODE>130.4110</RA_OF_ASC_NODE><ARG_OF_PERICENTER>127.6176</ARG_OF_PERICENTER><MEAN_ANOMALY>325.8777</MEAN_ANOMALY></meanElements><tleParameters><EPHEMERIS_TYPE>0</EPHEMERIS_TYPE><CLASSIFICATION_TYPE>U</CLASSIFICATION_TYPE><NORAD_CAT_ID>33061</NORAD_CAT_ID><ELEMENT_SET_NO>999</ELEMENT_SET_NO><REV_AT_EPOCH>83041</REV_AT_EPOCH><BSTAR>.54407E-3</BSTAR><MEAN_MOTION_DOT>.3603E-4</MEAN_MOTION_DOT><MEAN_MOTION_DDOT>0</MEAN_MOTION_DDOT></tleParameters></data></segment></body></omm>
<omm id="CCSDS_OMM_VERS" version="2.0">
<header><CREATION_DATE/><ORIGINATOR/></header><body><segment><metadata><OBJECT_NAME>ORBCOMM FM29 [-]</OBJECT_NAME><OBJECT_ID>2008-031C</OBJECT_ID><CENTER_NAME>EARTH</CENTER_NAME><REF_FRAME>TEME</REF_FRAME><TIME_SYSTEM>UTC</TIME_SYSTEM><MEAN_ELEMENT_THEORY>SGP4</MEAN_ELEMENT_THEORY></metadata><data><meanElements><EPOCH>2023-11-28T14:17:23.075808</EPOCH><MEAN_MOTION>14.76120506</MEAN_MOTION><ECCENTRICITY>.0006209</ECCENTRICITY><INCLINATION>48.4371</INCLINATION><RA_OF_ASC_NODE>138.8114</RA_OF_ASC_NODE><ARG_OF_PERICENTER>122.9242</ARG_OF_PERICENTER><MEAN_ANOMALY>353.9490</MEAN_ANOMALY></meanElements><tleParameters><EPHEMERIS_TYPE>0</EPHEMERIS_TYPE><CLASSIFICATION_TYPE>U</CLASSIFICATION_TYPE><NORAD_CAT_ID>33062</NORAD_CAT_ID><ELEMENT_SET_NO>999</ELEMENT_SET_NO><REV_AT_EPOCH>83031</REV_AT_EPOCH><BSTAR>.52577E-3</BSTAR><MEAN_MOTION_DOT>.3465E-4</MEAN_MOTION_DOT><MEAN_MOTION_DDOT>0</MEAN_MOTION_DDOT></tleParameters></data></segment></body></omm>
<omm id="CCSDS_OMM_VERS" version="2.0">
<header><CREATION_DATE/><ORIGINATOR/></header><body><segment><metadata><OBJECT_NAME>ORBCOMM FM39 [-]</OBJECT_NAME><OBJECT_ID>2008-031D</OBJECT_ID><CENTER_NAME>EARTH</CENTER_NAME><REF_FRAME>TEME</REF_FRAME><TIME_SYSTEM>UTC</TIME_SYSTEM><MEAN_ELEMENT_THEORY>SGP4</MEAN_ELEMENT_THEORY></metadata><data><meanElements><EPOCH>2023-11-28T12:04:59.642112</EPOCH><MEAN_MOTION>14.75251435</MEAN_MOTION><ECCENTRICITY>.0006995</ECCENTRICITY><INCLINATION>48.4385</INCLINATION><RA_OF_ASC_NODE>158.6117</RA_OF_ASC_NODE><ARG_OF_PERICENTER>96.5738</ARG_OF_PERICENTER><MEAN_ANOMALY>263.5971</MEAN_ANOMALY></meanElements><tleParameters><EPHEMERIS_TYPE>0</EPHEMERIS_TYPE><CLASSIFICATION_TYPE>U</CLASSIFICATION_TYPE><NORAD_CAT_ID>33063</NORAD_CAT_ID><ELEMENT_SET_NO>999</ELEMENT_SET_NO><REV_AT_EPOCH>83001</REV_AT_EPOCH><BSTAR>.43964E-3</BSTAR><MEAN_MOTION_DOT>.2803E-4</MEAN_MOTION_DOT><MEAN_MOTION_DDOT>0</MEAN_MOTION_DDOT></tleParameters></data></segment></body></omm>

</ndm>
